[{"OBJECT_NAME":"STARLINK-5462","OBJECT_ID":"2023-021AY","EPOCH":"2026-03-09T22:00:01.999584","MEAN_MOTION":14.98350999,"ECCENTRICITY":0.00033559,"INCLINATION":70.0011,"RA_OF_ASC_NODE":163.7425,"ARG_OF_PERICENTER":270.6716,"MEAN_ANOMALY":32.0399,"EPHEMERIS_TYPE":0,"CLASSIFICATION_TYPE":"U","NORAD_CAT_ID":55674,"ELEMENT_SET_NO":999,"REV_AT_EPOCH":575,"BSTAR":-0.00372699,"MEAN_MOTION_DOT":-0.00044308,"MEAN_MOTION_DDOT":0},{"OBJECT_NAME":"LEMUR-2-EMERSONROSE","OBJECT_ID":"2025-052BD","EPOCH":"2026-03-09T22:41:34.308672","MEAN_MOTION":14.98235234,"ECCENTRICITY":0.00026118,"INCLINATION":97.701,"RA_OF_ASC_NODE":323.5746,"ARG_OF_PERICENTER":47.547,"MEAN_ANOMALY":312.5973,"EPHEMERIS_TYPE":0,"CLASSIFICATION_TYPE":"U","NORAD_CAT_ID":63261,"ELEMENT_SET_NO":999,"REV_AT_EPOCH":5387,"BSTAR":0.00054278878,"MEAN_MOTION_DOT":6.392e-5,"MEAN_MOTION_DDOT":0}]
